{
  "type": "FeatureCollection",
  "features": [
    {
      "type": "Feature",
      "properties": {
        "norad_id": 58647,
        "name": "TIANMU-1 13",
        "group": "weather",
        "lat": -25.9400158739536,
        "lon": 4.040061416178847,
        "alt_km": 494.9798790462328,
        "timestamp": "2025-12-06T16:45:42.370675+00:00",
        "meta_object_name": "TIANMU-1 13",
        "meta_object_id": "2023-205C",
        "meta_epoch": "2025-12-06T05:50:54.598272",
        "meta_mean_motion": 15.24403357,
        "meta_eccentricity": 0.00062009,
        "meta_inclination": 97.3619,
        "meta_ra_of_asc_node": 359.9875,
        "meta_arg_of_pericenter": 296.869,
        "meta_mean_anomaly": 63.1913,
        "meta_ephemeris_type": 0,
        "meta_classification_type": "U",
        "meta_norad_cat_id": 58647,
        "meta_element_set_no": 999,
        "meta_rev_at_epoch": 10808,
        "meta_bstar": 0.00042779463,
        "meta_mean_motion_dot": 0.00010427,
        "meta_mean_motion_ddot": 0,
        "tle_line1": "1 58647U 23205C   25340.24368748  .00010427  00000+0  42779-3 0  9993",
        "tle_line2": "2 58647  97.3619 359.9875 0006200 296.8690  63.1913 15.24403357108085"
      },
      "geometry": {
        "type": "Point",
        "coordinates": [
          4.040061416178847,
          -25.9400158739536
        ]
      }
    },
    {
      "type": "Feature",
      "properties": {
        "norad_id": 58648,
        "name": "TIANMU-1 14",
        "group": "weather",
        "lat": 64.30798591939882,
        "lon": -15.785957910184006,
        "alt_km": 489.18817170535476,
        "timestamp": "2025-12-06T16:45:42.370685+00:00",
        "meta_object_name": "TIANMU-1 14",
        "meta_object_id": "2023-205D",
        "meta_epoch": "2025-12-06T05:26:54.212640",
        "meta_mean_motion": 15.243869,
        "meta_eccentricity": 0.00070934,
        "meta_inclination": 97.3551,
        "meta_ra_of_asc_node": 359.326,
        "meta_arg_of_pericenter": 301.457,
        "meta_mean_anomaly": 58.5974,
        "meta_ephemeris_type": 0,
        "meta_classification_type": "U",
        "meta_norad_cat_id": 58648,
        "meta_element_set_no": 999,
        "meta_rev_at_epoch": 10808,
        "meta_bstar": 0.00043923085,
        "meta_mean_motion_dot": 0.00010704,
        "meta_mean_motion_ddot": 0,
        "tle_line1": "1 58648U 23205D   25340.22701635  .00010704  00000+0  43923-3 0  9998",
        "tle_line2": "2 58648  97.3551 359.3260 0007093 301.4570  58.5974 15.24386900108083"
      },
      "geometry": {
        "type": "Point",
        "coordinates": [
          -15.785957910184006,
          64.30798591939882
        ]
      }
    },
    {
      "type": "Feature",
      "properties": {
        "norad_id": 58660,
        "name": "TIANMU-1 19",
        "group": "weather",
        "lat": -67.03708125234893,
        "lon": -106.2145989710091,
        "alt_km": 487.64039931468324,
        "timestamp": "2025-12-06T16:45:42.370695+00:00",
        "meta_object_name": "TIANMU-1 19",
        "meta_object_id": "2023-208A",
        "meta_epoch": "2025-12-06T06:14:46.375008",
        "meta_mean_motion": 15.27672812,
        "meta_eccentricity": 0.0004078,
        "meta_inclination": 97.4398,
        "meta_ra_of_asc_node": 91.3115,
        "meta_arg_of_pericenter": 282.2195,
        "meta_mean_anomaly": 77.8588,
        "meta_ephemeris_type": 0,
        "meta_classification_type": "U",
        "meta_norad_cat_id": 58660,
        "meta_element_set_no": 999,
        "meta_rev_at_epoch": 10783,
        "meta_bstar": 0.00060687036,
        "meta_mean_motion_dot": 0.00016361,
        "meta_mean_motion_ddot": 0,
        "tle_line1": "1 58660U 23208A   25340.26025897  .00016361  00000+0  60687-3 0  9999",
        "tle_line2": "2 58660  97.4398  91.3115 0004078 282.2195  77.8588 15.27672812107838"
      },
      "geometry": {
        "type": "Point",
        "coordinates": [
          -106.2145989710091,
          -67.03708125234893
        ]
      }
    },
    {
      "type": "Feature",
      "properties": {
        "norad_id": 58661,
        "name": "TIANMU-1 20",
        "group": "weather",
        "lat": -62.539728903330236,
        "lon": 106.74106220736338,
        "alt_km": 482.0268776141429,
        "timestamp": "2025-12-06T16:45:42.370707+00:00",
        "meta_object_name": "TIANMU-1 20",
        "meta_object_id": "2023-208B",
        "meta_epoch": "2025-12-06T06:02:35.639232",
        "meta_mean_motion": 15.28863839,
        "meta_eccentricity": 0.00063747,
        "meta_inclination": 97.4335,
        "meta_ra_of_asc_node": 91.7444,
        "meta_arg_of_pericenter": 293.2765,
        "meta_mean_anomaly": 66.7803,
        "meta_ephemeris_type": 0,
        "meta_classification_type": "U",
        "meta_norad_cat_id": 58661,
        "meta_element_set_no": 999,
        "meta_rev_at_epoch": 10790,
        "meta_bstar": 0.0005556878,
        "meta_mean_motion_dot": 0.00015533,
        "meta_mean_motion_ddot": 0,
        "tle_line1": "1 58661U 23208B   25340.25180138  .00015533  00000+0  55569-3 0  9992",
        "tle_line2": "2 58661  97.4335  91.7444 0006374 293.2765  66.7803 15.28863839107902"
      },
      "geometry": {
        "type": "Point",
        "coordinates": [
          106.74106220736338,
          -62.539728903330236
        ]
      }
    },
    {
      "type": "Feature",
      "properties": {
        "norad_id": 58662,
        "name": "TIANMU-1 21",
        "group": "weather",
        "lat": -65.96975706862511,
        "lon": -102.96736365283788,
        "alt_km": 475.8515281300279,
        "timestamp": "2025-12-06T16:45:42.370717+00:00",
        "meta_object_name": "TIANMU-1 21",
        "meta_object_id": "2023-208C",
        "meta_epoch": "2025-12-06T06:16:34.265280",
        "meta_mean_motion": 15.31344503,
        "meta_eccentricity": 0.00059176,
        "meta_inclination": 97.4383,
        "meta_ra_of_asc_node": 93.6336,
        "meta_arg_of_pericenter": 287.3724,
        "meta_mean_anomaly": 72.687,
        "meta_ephemeris_type": 0,
        "meta_classification_type": "U",
        "meta_norad_cat_id": 58662,
        "meta_element_set_no": 999,
        "meta_rev_at_epoch": 10800,
        "meta_bstar": 0.00061806524,
        "meta_mean_motion_dot": 0.00018667,
        "meta_mean_motion_ddot": 0,
        "tle_line1": "1 58662U 23208C   25340.26150770  .00018667  00000+0  61807-3 0  9996",
        "tle_line2": "2 58662  97.4383  93.6336 0005917 287.3724  72.6870 15.31344503108006"
      },
      "geometry": {
        "type": "Point",
        "coordinates": [
          -102.96736365283788,
          -65.96975706862511
        ]
      }
    },
    {
      "type": "Feature",
      "properties": {
        "norad_id": 58663,
        "name": "TIANMU-1 22",
        "group": "weather",
        "lat": -72.93763916339417,
        "lon": -113.38623344638957,
        "alt_km": 489.8127254233568,
        "timestamp": "2025-12-06T16:45:42.370727+00:00",
        "meta_object_name": "TIANMU-1 22",
        "meta_object_id": "2023-208D",
        "meta_epoch": "2025-12-06T06:13:00.216192",
        "meta_mean_motion": 15.27439671,
        "meta_eccentricity": 0.000293,
        "meta_inclination": 97.4392,
        "meta_ra_of_asc_node": 91.3723,
        "meta_arg_of_pericenter": 318.2233,
        "meta_mean_anomaly": 41.8782,
        "meta_ephemeris_type": 0,
        "meta_classification_type": "U",
        "meta_norad_cat_id": 58663,
        "meta_element_set_no": 999,
        "meta_rev_at_epoch": 10784,
        "meta_bstar": 0.00056146201,
        "meta_mean_motion_dot": 0.0001502,
        "meta_mean_motion_ddot": 0,
        "tle_line1": "1 58663U 23208D   25340.25903028  .00015020  00000+0  56146-3 0  9998",
        "tle_line2": "2 58663  97.4392  91.3723 0002930 318.2233  41.8782 15.27439671107840"
      },
      "geometry": {
        "type": "Point",
        "coordinates": [
          -113.38623344638957,
          -72.93763916339417
        ]
      }
    },
    {
      "type": "Feature",
      "properties": {
        "norad_id": 58700,
        "name": "TIANMU-1 15",
        "group": "weather",
        "lat": 82.02342343455909,
        "lon": 92.89150165757368,
        "alt_km": 486.765934015566,
        "timestamp": "2025-12-06T16:45:42.370737+00:00",
        "meta_object_name": "TIANMU-1 15",
        "meta_object_id": "2024-004A",
        "meta_epoch": "2025-12-06T06:55:45.910848",
        "meta_mean_motion": 15.245504,
        "meta_eccentricity": 0.00055571,
        "meta_inclination": 97.4624,
        "meta_ra_of_asc_node": 161.7818,
        "meta_arg_of_pericenter": 325.0791,
        "meta_mean_anomaly": 35.0081,
        "meta_ephemeris_type": 0,
        "meta_classification_type": "U",
        "meta_norad_cat_id": 58700,
        "meta_element_set_no": 999,
        "meta_rev_at_epoch": 10636,
        "meta_bstar": 0.0004543013,
        "meta_mean_motion_dot": 0.00011124,
        "meta_mean_motion_ddot": 0,
        "tle_line1": "1 58700U 24004A   25340.28872582  .00011124  00000+0  45430-3 0  9993",
        "tle_line2": "2 58700  97.4624 161.7818 0005557 325.0791  35.0081 15.24550400106364"
      },
      "geometry": {
        "type": "Point",
        "coordinates": [
          92.89150165757368,
          82.02342343455909
        ]
      }
    }
  ]
}